[{"OBJECT_NAME":"STARLINK-1302","OBJECT_ID":"2020-019R","EPOCH":"2026-03-10T00:00:02.999808","MEAN_MOTION":15.5360347,"ECCENTRICITY":0.00030051,"INCLINATION":53.0527,"RA_OF_ASC_NODE":150.2604,"ARG_OF_PERICENTER":301.3248,"MEAN_ANOMALY":266.3306,"EPHEMERIS_TYPE":0,"CLASSIFICATION_TYPE":"U","NORAD_CAT_ID":45375,"ELEMENT_SET_NO":999,"REV_AT_EPOCH":575,"BSTAR":0.0013331917,"MEAN_MOTION_DOT":0.00086959,"MEAN_MOTION_DDOT":0},{"OBJECT_NAME":"STARLINK-30189","OBJECT_ID":"2023-105A","EPOCH":"2026-03-09T22:00:01.999584","MEAN_MOTION":15.51162056,"ECCENTRICITY":0.00017619,"INCLINATION":42.9995,"RA_OF_ASC_NODE":236.5048,"ARG_OF_PERICENTER":284.6262,"MEAN_ANOMALY":116.714,"EPHEMERIS_TYPE":0,"CLASSIFICATION_TYPE":"U","NORAD_CAT_ID":57430,"ELEMENT_SET_NO":999,"REV_AT_EPOCH":573,"BSTAR":0.0058866843,"MEAN_MOTION_DOT":0.003694,"MEAN_MOTION_DDOT":0}]
